CCSDS_OMM_VERS,COMMENT,CREATION_DATE,ORIGINATOR,OBJECT_NAME,OBJECT_ID,CENTER_NAME,REF_FRAME,TIME_SYSTEM,MEAN_ELEMENT_THEORY,EPOCH,MEAN_MOTION,ECCENTRICITY,INCLINATION,RA_OF_ASC_NODE,ARG_OF_PERICENTER,MEAN_ANOMALY,EPHEMERIS_TYPE,CLASSIFICATION_TYPE,NORAD_CAT_ID,ELEMENT_SET_NO,REV_AT_EPOCH,BSTAR,MEAN_MOTION_DOT,MEAN_MOTION_DDOT,SEMIMAJOR_AXIS,PERIOD,APOAPSIS,PERIAPSIS,OBJECT_TYPE,RCS_SIZE,COUNTRY_CODE,LAUNCH_DATE,SITE,DECAY_DATE,FILE,GP_ID,TLE_LINE0,TLE_LINE1,TLE_LINE2
2,GENERATED VIA SPACE-TRACK.ORG API,2018-11-24T06:34:17,18 SPCS,GALILEO-FM2,2011-060B,EARTH,TEME,UTC,SGP4,2018-11-24T03:02:06.468864,1.70475567,0.0003918,56.2294,57.0717,292.0428,64.7003,0,U,37847,999,4415,0.0,-5.2e-07,0,29600.138,844.695,23233.601,23210.406,PAYLOAD,LARGE,ESA,2011-10-21,FRGUI,,2366438,124804122,0 GALILEO-FM2,1 37847U 11060B   18328.12646376 -.00000052  00000-0  00000+0 0  9991,2 37847  56.2294  57.0717 0003918 292.0428  64.7003  1.70475567 44150
2,GENERATED VIA SPACE-TRACK.ORG API,2018-11-25T19:49:17,18 SPCS,GALILEO-FM2,2011-060B,EARTH,TEME,UTC,SGP4,2018-11-24T17:34:20.690688,1.70475548,0.0003945,56.2298,57.0549,292.0622,76.426,0,U,37847,999,4405,0.0,-5.2e-07,0,29600.14,844.695,23233.683,23210.328,PAYLOAD,LARGE,ESA,2011-10-21,FRGUI,,2367174,124837423,0 GALILEO-FM2,1 37847U 11060B   18328.73218392 -.00000052 +00000-0 +00000-0 0  9992,2 37847 056.2298 057.0549 0003945 292.0622 076.4260 01.70475548044056
2,GENERATED VIA SPACE-TRACK.ORG API,2018-11-25T23:52:51,18 SPCS,GALILEO-FM2,2011-060B,EARTH,TEME,UTC,SGP4,2018-11-25T06:11:12.007968,1.7047554,0.0003965,56.2301,57.0402,292.0279,39.0304,0,U,37847,999,4405,0.0,-5.3e-07,0,29600.141,844.695,23233.743,23210.27,PAYLOAD,LARGE,ESA,2011-10-21,FRGUI,,2367306,124850270,0 GALILEO-FM2,1 37847U 11060B   18329.25777787 -.00000053 +00000-0 +00000-0 0  9999,2 37847 056.2301 057.0402 0003965 292.0279 039.0304 01.70475540044055
2,GENERATED VIA SPACE-TRACK.ORG API,2018-11-26T22:34:18,18 SPCS,GALILEO-FM2,2011-060B,EARTH,TEME,UTC,SGP4,2018-11-26T16:03:14.998176,1.70475518,0.0004027,56.2311,57.0009,291.9907,185.1223,0,U,37847,999,4420,0.0,-5.5e-07,0,29600.144,844.696,23233.929,23210.089,PAYLOAD,LARGE,ESA,2011-10-21,FRGUI,,2367720,124869522,0 GALILEO-FM2,1 37847U 11060B   18330.66892359 -.00000055  00000-0  00000+0 0  9990,2 37847  56.2311  57.0009 0004027 291.9907 185.1223  1.70475518 44200
2,GENERATED VIA SPACE-TRACK.ORG API,2018-11-29T14:42:18,18 SPCS,GALILEO-FM2,2011-060B,EARTH,TEME,UTC,SGP4,2018-11-29T10:01:20.761824,1.70475514,0.0004137,56.233,56.9244,291.9485,72.0959,0,U,37847,999,4425,0.0,-6.9e-07,0,29600.144,844.696,23234.255,23209.764,PAYLOAD,LARGE,ESA,2011-10-21,FRGUI,,2368967,124932348,0 GALILEO-FM2,1 37847U 11060B   18333.41760141 -.00000069  00000-0  00000+0 0  9994,2 37847  56.2330  56.9244 0004137 291.9485  72.0959  1.70475514 44254
2,GENERATED VIA SPACE-TRACK.ORG API,2018-12-01T22:30:18,18 SPCS,GALILEO-FM2,2011-060B,EARTH,TEME,UTC,SGP4,2018-12-01T18:16:21.846144,1.7047555,0.0004227,56.2344,56.8592,291.8202,70.6489,0,U,37847,999,4429,0.0,-8.3e-07,0,29600.14,844.695,23234.517,23209.493,PAYLOAD,LARGE,ESA,2011-10-21,FRGUI,,2370262,124975797,0 GALILEO-FM2,1 37847U 11060B   18335.76136396 -.00000083  00000-0  00000+0 0  9999,2 37847  56.2344  56.8592 0004227 291.8202  70.6489  1.70475550 44296
2,GENERATED VIA SPACE-TRACK.ORG API,2018-12-03T04:52:46,18 SPCS,GALILEO-FM2,2011-060B,EARTH,TEME,UTC,SGP4,2018-12-02T08:37:15.942720,1.70475567,0.0004253,56.235,56.8425,291.7965,77.587,0,U,37847,999,4418,0.0,-8.6e-07,0,29600.138,844.695,23234.592,23209.414,PAYLOAD,LARGE,ESA,2011-10-21,FRGUI,,2370835,125006167,0 GALILEO-FM2,1 37847U 11060B   18336.35921230 -.00000086 +00000-0 +00000-0 0  9998,2 37847 056.2350 056.8425 0004253 291.7965 077.5870 01.70475567044188
2,GENERATED VIA SPACE-TRACK.ORG API,2018-12-04T14:32:17,18 SPCS,GALILEO-FM2,2011-060B,EARTH,TEME,UTC,SGP4,2018-12-04T05:35:03.990048,1.70475625,0.0004332,56.2365,56.7904,291.798,147.3819,0,U,37847,999,4433,0.0,-8.9e-07,0,29600.131,844.695,23234.819,23209.174,PAYLOAD,LARGE,ESA,2011-10-21,FRGUI,,2371727,125035789,0 GALILEO-FM2,1 37847U 11060B   18338.23268507 -.00000089  00000-0  00000+0 0  9990,2 37847  56.2365  56.7904 0004332 291.7980 147.3819  1.70475625 44331
2,GENERATED VIA SPACE-TRACK.ORG API,2018-12-06T04:39:34,18 SPCS,GALILEO-FM2,2011-060B,EARTH,TEME,UTC,SGP4,2018-12-05T07:44:13.379712,1.70475661,0.0004376,56.2373,56.7601,291.7972,96.1536,0,U,37847,999,4423,0.0,-8.7e-07,0,29600.127,844.695,23234.945,23209.039,PAYLOAD,LARGE,ESA,2011-10-21,FRGUI,,2372549,125069146,0 GALILEO-FM2,1 37847U 11060B   18339.32237708 -.00000087 +00000-0 +00000-0 0  9999,2 37847 056.2373 056.7601 0004376 291.7972 096.1536 01.70475661044239
2,GENERATED VIA SPACE-TRACK.ORG API,2018-12-06T12:34:17,18 SPCS,GALILEO-FM2,2011-060B,EARTH,TEME,UTC,SGP4,2018-12-06T10:46:13.728000,1.704757,0.0004416,56.2381,56.7288,291.8507,67.3954,0,U,37847,999,4436,0.0,-8.5e-07,0,29600.123,844.695,23235.059,23208.916,PAYLOAD,LARGE,ESA,2011-10-21,FRGUI,,2372782,125076683,0 GALILEO-FM2,1 37847U 11060B   18340.44877000 -.00000085  00000-0  00000+0 0  9996,2 37847  56.2381  56.7288 0004416 291.8507  67.3954  1.70475700 44361
2,GENERATED VIA SPACE-TRACK.ORG API,2018-12-08T22:40:19,18 SPCS,GALILEO-FM2,2011-060B,EARTH,TEME,UTC,SGP4,2018-12-08T19:01:16.182624,1.70475761,0.0004512,56.2397,56.6636,291.9709,65.7099,0,U,37847,999,4440,0.0,-7.8e-07,0,29600.116,844.694,23235.336,23208.625,PAYLOAD,LARGE,ESA,2011-10-21,FRGUI,,2373972,125123473,0 GALILEO-FM2,1 37847U 11060B   18342.79254841 -.00000078  00000-0  00000+0 0  9990,2 37847  56.2397  56.6636 0004512 291.9709  65.7099  1.70475761 44400
2,GENERATED VIA SPACE-TRACK.ORG API,2018-12-13T21:28:18,18 SPCS,GALILEO-FM2,2011-060B,EARTH,TEME,UTC,SGP4,2018-12-13T15:52:10.826688,1.7047578,0.0004692,56.2432,56.5283,292.4662,173.2497,0,U,37847,999,4449,0.0,-6.5e-07,0,29600.114,844.694,23235.867,23208.09,PAYLOAD,LARGE,ESA,2011-10-21,FRGUI,,2376606,125228045,0 GALILEO-FM2,1 37847U 11060B   18347.66123642 -.00000065  00000-0  00000+0 0  9991,2 37847  56.2432  56.5283 0004692 292.4662 173.2497  1.70475780 44497
2,GENERATED VIA SPACE-TRACK.ORG API,2018-12-15T05:16:47,18 SPCS,GALILEO-FM2,2011-060B,EARTH,TEME,UTC,SGP4,2018-12-14T15:53:23.080416,1.70475763,0.0004725,56.2439,56.5005,292.6215,67.3326,0,U,37847,999,4438,0.0,-6.3e-07,0,29600.115,844.694,23235.967,23207.994,PAYLOAD,LARGE,ESA,2011-10-21,FRGUI,,2377260,125257910,0 GALILEO-FM2,1 37847U 11060B   18348.66207269 -.00000063 +00000-0 +00000-0 0  9999,2 37847 056.2439 056.5005 0004725 292.6215 067.3326 01.70475763044382
2,GENERATED VIA SPACE-TRACK.ORG API,2018-12-17T14:30:19,18 SPCS,GALILEO-FM2,2011-060B,EARTH,TEME,UTC,SGP4,2018-12-17T12:17:48.208992,1.70475685,0.000483,56.246,56.4212,293.0261,16.222,0,U,37847,999,4455,0.0,-5.8e-07,0,29600.125,844.695,23236.286,23207.693,PAYLOAD,LARGE,ESA,2011-10-21,FRGUI,,2378583,125308530,0 GALILEO-FM2,1 37847U 11060B   18351.51236353 -.00000058  00000-0  00000+0 0  9996,2 37847  56.2460  56.4212 0004830 293.0261  16.2220  1.70475685 44556
2,GENERATED VIA SPACE-TRACK.ORG API,2018-12-19T07:02:58,18 SPCS,GALILEO-FM2,2011-060B,EARTH,TEME,UTC,SGP4,2018-12-18T18:30:27.924192,1.70475644,0.0004881,56.2469,56.3861,293.1265,68.674,0,U,37847,999,4446,0.0,-5.6e-07,0,29600.129,844.695,23236.442,23207.546,PAYLOAD,LARGE,ESA,2011-10-21,FRGUI,,2379530,125345650,0 GALILEO-FM2,1 37847U 11060B   18352.77115653 -.00000056 +00000-0 +00000-0 0  9993,2 37847 056.2469 056.3861 0004881 293.1265 068.6740 01.70475644044468
2,GENERATED VIA SPACE-TRACK.ORG API,2018-12-21T06:46:17,18 SPCS,GALILEO-FM2,2011-060B,EARTH,TEME,UTC,SGP4,2018-12-21T02:45:28.844352,1.70475574,0.0004973,56.2486,56.3209,293.3592,66.8648,0,U,37847,999,4462,0.0,-5.3e-07,0,29600.137,844.695,23236.723,23207.282,PAYLOAD,LARGE,ESA,2011-10-21,FRGUI,,2381261,125392743,0 GALILEO-FM2,1 37847U 11060B   18355.11491718 -.00000053  00000-0  00000+0 0  9999,2 37847  56.2486  56.3209 0004973 293.3592  66.8648  1.70475574 44627
2,GENERATED VIA SPACE-TRACK.ORG API,2018-12-23T14:34:19,18 SPCS,GALILEO-FM2,2011-060B,EARTH,TEME,UTC,SGP4,2018-12-23T11:00:25.942176,1.70475521,0.0005073,56.2503,56.2556,293.6821,64.9383,0,U,37847,999,4465,0.0,-5.2e-07,0,29600.143,844.696,23237.025,23206.992,PAYLOAD,LARGE,ESA,2011-10-21,FRGUI,,2382474,125442649,0 GALILEO-FM2,1 37847U 11060B   18357.45863359 -.00000052  00000-0  00000+0 0  9991,2 37847  56.2503  56.2556 0005073 293.6821  64.9383  1.70475521 44651
2,GENERATED VIA SPACE-TRACK.ORG API,2018-12-25T22:34:19,18 SPCS,GALILEO-FM2,2011-060B,EARTH,TEME,UTC,SGP4,2018-12-25T19:15:25.941312,1.70475496,0.0005181,56.252,56.1902,294.0281,63.0089,0,U,37847,999,4469,0.0,-6e-07,0,29600.146,844.696,23237.347,23206.676,PAYLOAD,LARGE,ESA,2011-10-21,FRGUI,,2383671,125497647,0 GALILEO-FM2,1 37847U 11060B   18359.80238358 -.00000060  00000-0  00000+0 0  9996,2 37847  56.2520  56.1902 0005181 294.0281  63.0089  1.70475496 44697
2,GENERATED VIA SPACE-TRACK.ORG API,2018-12-27T07:11:41,18 SPCS,GALILEO-FM2,2011-060B,EARTH,TEME,UTC,SGP4,2018-12-26T21:34:10.309152,1.70475503,0.0005211,56.2528,56.1597,294.0855,15.8065,0,U,37847,999,4459,0.0,-6.6e-07,0,29600.146,844.696,23237.435,23206.586,PAYLOAD,LARGE,ESA,2011-10-21,FRGUI,,2384558,125532349,0 GALILEO-FM2,1 37847U 11060B   18360.89873043 -.00000066 +00000-0 +00000-0 0  9990,2 37847 056.2528 056.1597 0005211 294.0855 015.8065 01.70475503044593
2,GENERATED VIA SPACE-TRACK.ORG API,2018-12-27T22:42:24,18 SPCS,GALILEO-FM2,2011-060B,EARTH,TEME,UTC,SGP4,2018-12-27T04:52:13.049184,1.70475507,0.0005217,56.2531,56.1512,294.106,202.48,0,U,37847,999,4460,0.0,-6.7e-07,0,29600.145,844.696,23237.453,23206.568,PAYLOAD,LARGE,ESA,2011-10-21,FRGUI,,2384993,125551779,0 GALILEO-FM2,1 37847U 11060B   18361.20292881 -.00000067 +00000-0 +00000-0 0  9992,2 37847 056.2531 056.1512 0005217 294.1060 202.4800 01.70475507044606
